{
  "type": "FeatureCollection",
  "features": [
    {
      "type": "Feature",
      "properties": {
        "norad_id": 29268,
        "name": "ARIRANG-2 (KOMPSAT-2)",
        "group": "resource",
        "lat": -76.65656025971695,
        "lon": -26.050927121025683,
        "alt_km": 676.7279284914812,
        "timestamp": "2025-12-27T15:27:10.799795+00:00",
        "meta_object_name": "ARIRANG-2 (KOMPSAT-2)",
        "meta_object_id": "2006-031A",
        "meta_epoch": "2025-12-27T08:16:24.253824",
        "meta_mean_motion": 14.64506792,
        "meta_eccentricity": 0.00131329,
        "meta_inclination": 97.8261,
        "meta_ra_of_asc_node": 189.1056,
        "meta_arg_of_pericenter": 258.6812,
        "meta_mean_anomaly": 224.2162,
        "meta_ephemeris_type": 0,
        "meta_classification_type": "U",
        "meta_norad_cat_id": 29268,
        "meta_element_set_no": 999,
        "meta_rev_at_epoch": 3632,
        "meta_bstar": 0.00010011544,
        "meta_mean_motion_dot": 4.86e-06,
        "meta_mean_motion_ddot": 0,
        "tle_line1": "1 29268U 06031A   25361.34472516  .00000486  00000+0  10012-3 0  9990",
        "tle_line2": "2 29268  97.8261 189.1056 0013132 258.6812 224.2162 14.64506792 36321"
      },
      "geometry": {
        "type": "Point",
        "coordinates": [
          -26.050927121025683,
          -76.65656025971695
        ]
      }
    },
    {
      "type": "Feature",
      "properties": {
        "norad_id": 29709,
        "name": "LAPAN-TUBSAT",
        "group": "resource",
        "lat": -67.481619183386,
        "lon": 151.9459726831175,
        "alt_km": 625.7099744362667,
        "timestamp": "2025-12-27T15:27:10.799806+00:00",
        "meta_object_name": "LAPAN-TUBSAT",
        "meta_object_id": "2007-001A",
        "meta_epoch": "2025-12-27T06:15:14.518080",
        "meta_mean_motion": 14.85692522,
        "meta_eccentricity": 0.00130379,
        "meta_inclination": 98.1269,
        "meta_ra_of_asc_node": 351.7164,
        "meta_arg_of_pericenter": 30.8211,
        "meta_mean_anomaly": 329.3766,
        "meta_ephemeris_type": 0,
        "meta_classification_type": "U",
        "meta_norad_cat_id": 29709,
        "meta_element_set_no": 999,
        "meta_rev_at_epoch": 2562,
        "meta_bstar": 0.00013150166,
        "meta_mean_motion_dot": 1.084e-05,
        "meta_mean_motion_ddot": 0,
        "tle_line1": "1 29709U 07001A   25361.26058470  .00001084  00000+0  13150-3 0  9999",
        "tle_line2": "2 29709  98.1269 351.7164 0013037  30.8211 329.3766 14.85692522 25625"
      },
      "geometry": {
        "type": "Point",
        "coordinates": [
          151.9459726831175,
          -67.481619183386
        ]
      }
    },
    {
      "type": "Feature",
      "properties": {
        "norad_id": 31113,
        "name": "HAIYANG-1B",
        "group": "resource",
        "lat": 79.10337721918023,
        "lon": -64.27708995454198,
        "alt_km": 780.7570732876266,
        "timestamp": "2025-12-27T15:27:10.799816+00:00",
        "meta_object_name": "HAIYANG-1B",
        "meta_object_id": "2007-010A",
        "meta_epoch": "2025-12-27T04:59:54.758688",
        "meta_mean_motion": 14.30969898,
        "meta_eccentricity": 0.00134765,
        "meta_inclination": 98.3331,
        "meta_ra_of_asc_node": 344.8896,
        "meta_arg_of_pericenter": 356.379,
        "meta_mean_anomaly": 3.7294,
        "meta_ephemeris_type": 0,
        "meta_classification_type": "U",
        "meta_norad_cat_id": 31113,
        "meta_element_set_no": 999,
        "meta_rev_at_epoch": 97603,
        "meta_bstar": 7.5272376e-05,
        "meta_mean_motion_dot": 1.56e-06,
        "meta_mean_motion_ddot": 0,
        "tle_line1": "1 31113U 07010A   25361.20827267  .00000156  00000+0  75272-4 0  9996",
        "tle_line2": "2 31113  98.3331 344.8896 0013476 356.3790   3.7294 14.30969898976031"
      },
      "geometry": {
        "type": "Point",
        "coordinates": [
          -64.27708995454198,
          79.10337721918023
        ]
      }
    },
    {
      "type": "Feature",
      "properties": {
        "norad_id": 31598,
        "name": "COSMO-SKYMED 1",
        "group": "resource",
        "lat": 27.563851806780953,
        "lon": -177.00626165040637,
        "alt_km": 578.0623837273552,
        "timestamp": "2025-12-27T15:27:10.799827+00:00",
        "meta_object_name": "COSMO-SKYMED 1",
        "meta_object_id": "2007-023A",
        "meta_epoch": "2025-12-27T07:18:06.754176",
        "meta_mean_motion": 14.95872577,
        "meta_eccentricity": 0.00010951,
        "meta_inclination": 97.8838,
        "meta_ra_of_asc_node": 186.7998,
        "meta_arg_of_pericenter": 78.0364,
        "meta_mean_anomaly": 282.0979,
        "meta_ephemeris_type": 0,
        "meta_classification_type": "U",
        "meta_norad_cat_id": 31598,
        "meta_element_set_no": 999,
        "meta_rev_at_epoch": 408,
        "meta_bstar": 0.00033969969,
        "meta_mean_motion_dot": 3.739e-05,
        "meta_mean_motion_ddot": 0,
        "tle_line1": "1 31598U 07023A   25361.30424484  .00003739  00000+0  33970-3 0  9990",
        "tle_line2": "2 31598  97.8838 186.7998 0001095  78.0364 282.0979 14.95872577  4086"
      },
      "geometry": {
        "type": "Point",
        "coordinates": [
          -177.00626165040637,
          27.563851806780953
        ]
      }
    },
    {
      "type": "Feature",
      "properties": {
        "norad_id": 31698,
        "name": "TERRASAR-X",
        "group": "resource",
        "lat": -33.11816161226824,
        "lon": -178.08689554252342,
        "alt_km": 515.5085379446327,
        "timestamp": "2025-12-27T15:27:10.799838+00:00",
        "meta_object_name": "TERRASAR-X",
        "meta_object_id": "2007-026A",
        "meta_epoch": "2025-12-26T13:13:25.268160",
        "meta_mean_motion": 15.19159007,
        "meta_eccentricity": 0.0001831,
        "meta_inclination": 97.4449,
        "meta_ra_of_asc_node": 5.7296,
        "meta_arg_of_pericenter": 80.7089,
        "meta_mean_anomaly": 279.4352,
        "meta_ephemeris_type": 0,
        "meta_classification_type": "U",
        "meta_norad_cat_id": 31698,
        "meta_element_set_no": 999,
        "meta_rev_at_epoch": 2701,
        "meta_bstar": 7.4512e-05,
        "meta_mean_motion_dot": 1.498e-05,
        "meta_mean_motion_ddot": 0,
        "tle_line1": "1 31698U 07026A   25360.55098690  .00001498  00000+0  74512-4 0  9994",
        "tle_line2": "2 31698  97.4449   5.7296 0001831  80.7089 279.4352 15.19159007 27010"
      },
      "geometry": {
        "type": "Point",
        "coordinates": [
          -178.08689554252342,
          -33.11816161226824
        ]
      }
    },
    {
      "type": "Feature",
      "properties": {
        "norad_id": 32060,
        "name": "WORLDVIEW-1 (WV-1)",
        "group": "resource",
        "lat": 48.21512515034357,
        "lon": -52.75418368225666,
        "alt_km": 491.2339263775566,
        "timestamp": "2025-12-27T15:27:10.799855+00:00",
        "meta_object_name": "WORLDVIEW-1 (WV-1)",
        "meta_object_id": "2007-041A",
        "meta_epoch": "2025-12-27T07:00:01.279008",
        "meta_mean_motion": 15.23997296,
        "meta_eccentricity": 0.00030075,
        "meta_inclination": 97.3816,
        "meta_ra_of_asc_node": 118.5576,
        "meta_arg_of_pericenter": 346.3085,
        "meta_mean_anomaly": 13.807,
        "meta_ephemeris_type": 0,
        "meta_classification_type": "U",
        "meta_norad_cat_id": 32060,
        "meta_element_set_no": 999,
        "meta_rev_at_epoch": 1669,
        "meta_bstar": 0.0003911353,
        "meta_mean_motion_dot": 9.407e-05,
        "meta_mean_motion_ddot": 0,
        "tle_line1": "1 32060U 07041A   25361.29168147  .00009407  00000+0  39114-3 0  9998",
        "tle_line2": "2 32060  97.3816 118.5576 0003007 346.3085  13.8070 15.23997296 16693"
      },
      "geometry": {
        "type": "Point",
        "coordinates": [
          -52.75418368225666,
          48.21512515034357
        ]
      }
    },
    {
      "type": "Feature",
      "properties": {
        "norad_id": 32289,
        "name": "YAOGAN-3",
        "group": "resource",
        "lat": -77.55649525159971,
        "lon": 66.7495951592394,
        "alt_km": 606.2661690359964,
        "timestamp": "2025-12-27T15:27:10.799879+00:00",
        "meta_object_name": "YAOGAN-3",
        "meta_object_id": "2007-055A",
        "meta_epoch": "2025-12-27T07:45:14.486112",
        "meta_mean_motion": 14.89931354,
        "meta_eccentricity": 0.00011896,
        "meta_inclination": 97.8358,
        "meta_ra_of_asc_node": 27.8159,
        "meta_arg_of_pericenter": 81.5941,
        "meta_mean_anomaly": 278.5412,
        "meta_ephemeris_type": 0,
        "meta_classification_type": "U",
        "meta_norad_cat_id": 32289,
        "meta_element_set_no": 999,
        "meta_rev_at_epoch": 98026,
        "meta_bstar": 0.00042956911,
        "meta_mean_motion_dot": 4.08e-05,
        "meta_mean_motion_ddot": 0,
        "tle_line1": "1 32289U 07055A   25361.32308433  .00004080  00000+0  42957-3 0  9995",
        "tle_line2": "2 32289  97.8358  27.8159 0001189  81.5941 278.5412 14.89931354980266"
      },
      "geometry": {
        "type": "Point",
        "coordinates": [
          66.7495951592394,
          -77.55649525159971
        ]
      }
    }
  ]
}